#aV2007  4  4  0  0   .00000000      96 DD+AD WGS84 FIT  NGA
## 1421 259200.00000000   900.00000000 54194  .0000000000000
+   30     1  2  3  4  5  6  7  8  9 10 11 12 13 14 16 17 18
+         19 20 21 22 23 24 25 26 27 28 29 30 31  0  0  0  0
+          0  0  0  0  0  0  0  0  0  0  0  0  0  0  0  0  0
+          0  0  0  0  0  0  0  0  0  0  0  0  0  0  0  0  0
+          0  0  0  0  0  0  0  0  0  0  0  0  0  0  0  0  0
++         0  0  0  0  0  0  0  0  0  0  0  0  0  0  0  0  0
++         0  0  0  0  0  0  0  0  0  0  0  0  0  0  0  0  0
++         0  0  0  0  0  0  0  0  0  0  0  0  0  0  0  0  0
++         0  0  0  0  0  0  0  0  0  0  0  0  0  0  0  0  0
++         0  0  0  0  0  0  0  0  0  0  0  0  0  0  0  0  0
%c cc cc ccc ccc cccc cccc cccc cccc ccccc ccccc ccccc ccccc
%c cc cc ccc ccc cccc cccc cccc cccc ccccc ccccc ccccc ccccc
%f  0.0000000  0.000000000  0.00000000000  0.000000000000000
%f  0.0000000  0.000000000  0.00000000000  0.000000000000000
%i    0    0    0    0      0      0      0      0         0
%i    0    0    0    0      0      0      0      0         0
/*      NGA, ST. LOUIS,MO.                                  
/*   EPHEMERIS COMPUTED FROM  3 DAYS OF DATA                
/* CCCCCCCCCCCCCCCCCCCCCCCCCCCCCCCCCCCCCCCCCCCCCCCCCCCCCCCCC
/* CCCCCCCCCCCCCCCCCCCCCCCCCCCCCCCCCCCCCCCCCCCCCCCCCCCCCCCCC
*  2007  4  4 14  0   .00000000                                                 
P  1  -7474.649531  17939.900645  18280.763475    118.114364                    
V  1 -20353.711913  10214.791194 -18613.278421       .024955                    
P  2  -5007.652505 -17926.857750  18819.365306     96.087889                    
V  2  22227.732815   9995.537765  14986.973394       .031696                    
P  3  -1839.505621  18999.036307 -18544.041189     37.701355                    
V  3 -19768.399765  12625.321825  15395.609743       .056694                    
P  4  10197.426841 -11967.713598  21367.874356      9.684906                    
V  4  23824.710383  13354.075170  -3520.726116       .007456                    
P  5 -14450.142906 -13807.406197  17336.206540     38.274428                    
V  5   -707.301653 -22555.538990 -18157.763336      -.049339                    
P  6 -22206.568429   1930.310285  14668.839772    124.471254                    
V  6  13752.315020 -12431.225286  22697.561474       .194447                    
P  7 -23338.794481   6356.782266  11399.698840    358.510361                    
V  7   9678.882992 -10512.703654  26403.737076      -.148639                    
P  8  18814.716478  -3546.604785 -18709.351124   -102.459199                    
V  8  19587.633616  12688.936621  16974.929011      -.013132                    
P  9 -20305.172322 -15758.393781  -7735.449130     64.539268                    
V  9   9048.981004   1898.897648 -29679.511186       .016476                    
P 10  -1363.269598 -26305.118845  -1580.903725     99.807961                    
V 10   2792.519145  -1916.966092  32078.770535       .005380                    
P 11  22700.594248  12743.493435  -6085.159996     12.286916                    
V 11  -8628.067532   1759.369626 -28718.456835       .010672                    
P 12 -12266.530452 -16797.578306  16656.948764    -43.995763                    
V 12    975.898578 -20973.291989 -20516.221070       .001005                    
P 13  23247.571513  -4539.494873  11868.368431    159.809738                    
V 13 -12383.447721   8935.303693  27491.971009       .036904                    
P 14 -20178.266371  16328.475608   5538.657456     14.416518                    
V 14  -6922.677858   1910.070215 -31376.414569       .015506                    
P 16  -2815.907774  25898.788936   4852.599872    136.866176                    
V 16  -2920.053253  -6015.722742  31097.964701       .032750                    
P 17  20966.786840 -15813.697272   3488.991260     72.857017                    
V 17   5304.465791    143.731227 -31414.274547      -.013277                    
P 18 -15076.767719   4602.458451 -21202.410431   -252.201664                    
V 18   -533.317660 -27312.699725  -5836.686941       .005127                    
P 19   6855.697314  13598.694803 -21661.413636     21.463264                    
V 19 -24468.138904  13090.695670    575.909060       .037732                    
P 20  12876.768228  15659.114597  17076.823704    -23.398178                    
V 20   -859.495687  21954.923908 -19323.408388      -.003318                    
P 21 -23301.149481  -2489.667838 -12916.463490     74.775998                    
V 21 -13031.278105 -10253.405323  24709.142736       .006762                    
P 22 -11950.032578  16958.350306 -16419.477968    175.136956                    
V 22  -1786.293796 -21199.186892 -20428.494143       .016228                    
P 23  17931.755053   4226.676447  19122.268559    158.103558                    
V 23 -20059.571526  13869.819695  15487.540432       .021615                    
P 24 -23219.682556 -12387.656031  -1855.595249     90.149124                    
V 24   -601.096004  -4109.892044  31735.935960       .029311                    
P 25  17199.224111  16380.942211  12144.716922    255.878797                    
V 25 -14646.151385  -3473.717812  26444.089294      -.257406                    
P 26  -4882.273144 -14053.331689 -22385.447174   -123.792573                    
V 26  23887.416308 -13337.661445   3786.694478      -.197296                    
P 27  23931.582741   2588.977729 -10851.367526    103.110930                    
V 27  12367.488767   8230.468788  27371.856473       .021500                    
P 28  12940.943222 -12981.855859 -18761.315750      3.930387                    
V 28   1958.201837  24619.211298 -15755.471501      -.007677                    
P 29    -46.540547 -16124.650447 -20809.094610      1.250165                    
V 29  23261.768888 -13598.207000  10731.244011       .003850                    
P 30 -15384.435058  -5107.000483  20753.145003     30.067398                    
V 30  -1190.535250 -27075.242544  -7323.979743       .009711                    
P 31  -7944.039174  13093.079511  21903.954120     18.531740                    
V 31 -24161.417474 -12767.736294  -1075.823168       .012190                    
EOF
